#aV2022  5 26  0  0  0.00000000     288 DD+AD WGS84 FIT  NGA
## 2211 345600.00000000   300.00000000 59725 0.0000000000000
+   32     1  2  3  4  5  6  7  8  9 10 11 12 13 14 15 16 17
+         18 19 20 21 22 23 24 25 26 27 28 29 30 31 32  0  0
+          0  0  0  0  0  0  0  0  0  0  0  0  0  0  0  0  0
+          0  0  0  0  0  0  0  0  0  0  0  0  0  0  0  0  0
+          0  0  0  0  0  0  0  0  0  0  0  0  0  0  0  0  0
++         2  2  2  2  2  2  2  2  2  2  2  2  2  2  2  2  2
++         2  2  2  2  2  2  2  2  2  2  2  2  2  2  2  0  0
++         0  0  0  0  0  0  0  0  0  0  0  0  0  0  0  0  0
++         0  0  0  0  0  0  0  0  0  0  0  0  0  0  0  0  0
++         0  0  0  0  0  0  0  0  0  0  0  0  0  0  0  0  0
%c cc cc ccc ccc cccc cccc cccc cccc ccccc ccccc ccccc ccccc
%c cc cc ccc ccc cccc cccc cccc cccc ccccc ccccc ccccc ccccc
%f  0.0000000  0.000000000  0.00000000000  0.000000000000000
%f  0.0000000  0.000000000  0.00000000000  0.000000000000000
%i    0    0    0    0      0      0      0      0         0
%i    0    0    0    0      0      0      0      0         0
/*      NGA, ST. LOUIS,MO.                                  
/*   EPHEMERIS COMPUTED FROM 2 DAYS OF DATA                 
/*   EPOCHA v7 SMOOTHER                                     
/*   G2139 IERS2010 SATIGS SATAPC                           
*  2022  5 26  0 35  0.00000000
P  1 -11391.501410  20931.940447 -11642.287687    355.031225                    
V  1 -11843.262749   8408.580316  27752.886434     -0.081570                    
P  2  20665.752318 -14068.840736  -8532.554040   -653.132005                    
V  2  -6006.806715  10336.061638 -29217.483923      0.001756                    
P  3  -3715.678242  14518.614142 -22039.106781   -257.183871                    
V  3 -26528.655406  -7889.808131   -615.531358     -0.130422                    
P  4  -2264.789776  24400.197886 -10122.415578   -163.706104                    
V  4  -5079.229725 -12130.903402 -28159.924006      0.037361                    
P  5  19042.398433  -7370.195242  16900.603204    -83.176364                    
V  5  20637.809484   6990.160687 -19861.220897     -0.013844                    
P  6  18047.335512    681.651344 -19443.694206    317.666551                    
V  6 -17416.953746  17572.630026 -15423.598420      0.149090                    
P  7   4068.392799  16462.204289  20731.005010    322.209727                    
V  7 -19450.518822  16644.318655 -10083.954891      0.000139                    
P  8  -7510.644271  18572.592853  17217.136065    -69.488248                    
V  8  -7422.043014 -20873.528450  19578.780057     -0.015172                    
P  9   6447.622865  25746.342476   -323.318752   -333.851033                    
V  9  -3051.622862    446.821894 -31619.595587      0.030593                    
P 10 -22937.097903 -11790.164702   7111.208072   -428.835781                    
V 10   8963.434127    535.466467  30145.514054     -0.151651                    
P 11  22491.546948 -10956.200148  -8893.635681    -20.753434                    
V 11  -6981.950954   9224.987782 -29051.545606      0.039674                    
P 12   9106.770289 -12561.996027 -21810.529988   -221.123270                    
V 12  25169.530007   9919.527609   4968.664464     -0.058621                    
P 13  13281.091127  -9780.889976  20627.195344    318.182269                    
V 13   3570.296255  26334.297202  10282.497054      0.068328                    
P 14  21718.282057  13234.609525   7817.006951   -109.757365                    
V 14 -10286.341134   -540.299648  29394.110374     -0.013565                    
P 15   5194.860071 -20044.855909  16047.174229    -58.361912                    
V 15  10167.061014  18990.867808  20230.490026      0.029940                    
P 16 -22753.570228   1110.702694  13754.139223   -503.942841                    
V 16 -15830.739319  -8180.532505 -24585.655273     -0.030933                    
P 17  13071.274056  17465.438739 -14681.821000    617.160347                    
V 17   1521.170033  19419.071003  23811.101255      0.046503                    
P 18  -2521.762485 -16637.482112  20512.839732    160.221785                    
V 18  19902.611918 -16853.788250 -11325.013126     -0.103525                    
P 19  14861.879167   9924.655201 -19979.306652    162.146552                    
V 19   2321.700197  24592.215142  13920.636448      0.049955                    
P 20  25162.259210  -2360.837121   7775.978088    514.062506                    
V 20   9435.041774   4609.243536 -29371.142723     -0.010490                    
P 21 -17396.046711  19548.954987   -205.967081    161.213275                    
V 21  -3249.335441  -1538.735523  32202.666929      0.001152                    
P 22 -15327.606729  -6872.977373 -20200.827576    265.116646                    
V 22  -3059.318759 -26385.834269  10897.914433      0.062032                    
P 23 -14838.641575 -15282.467133  15921.676733    -24.204368                    
V 23  19930.305858   3562.251726  21878.081085     -0.023470                    
P 24  12854.357401 -21995.613852  -7006.972310    234.220140                    
V 24   8569.959037  -3917.421622  29683.572000     -0.073796                    
P 25  -7212.880823 -16615.904346 -19801.743226    329.331859                    
V 25  23778.587649   5790.647762 -13453.218405      0.047503                    
P 26 -26248.773820  -3765.907679   3271.850342    208.106426                    
V 26  -3371.755621  -4135.674449 -30674.075478      0.025371                    
P 27 -13807.661840   5852.246351  21680.798720    208.250531                    
V 27  -6960.854162 -27167.492074   3254.407677      0.050992                    
P 28  24595.201455   9646.879855   -311.619187    351.120277                    
V 28    -98.683888   2963.686836  32077.814733     -0.073302                    
P 29  -4046.812237 -26212.336366   -243.078024   -517.458632                    
V 29   2257.008498   -114.897749 -32230.749406     -0.039203                    
P 30  12781.290093   9584.945994  21322.899998   -529.235776                    
V 30 -19696.714616  18397.161479   3297.112723     -0.013381                    
P 31 -20044.430382   1188.728843 -17743.118444   -179.141510                    
V 31  15450.060974 -15888.728330 -18196.909517     -0.015599                    
P 32 -15245.701776 -14648.840217 -16042.120300   -135.627184                    
V 32  -3105.357533 -20428.793884  21223.145380     -0.089211                    
EOF
